{"spkid": "50063081", "covariance": {"elements": [{"title": "eccentricity", "value": ".2627057545724927", "units": null, "name": "e", "sigma": 3.15978173522025e-07, "label": "e"}, {"sigma": 2.80379160098735e-07, "name": "q", "value": ".648445576570201", "title": "perihelion distance", "units": "au", "label": "q"}, {"value": "2454484.267109287039", "title": "time of perihelion passage", "units": "TDB", "name": "tp", "sigma": 6.25802953616945e-05, "label": "tp"}, {"label": "node", "name": "om", "sigma": 3.56056918774183e-05, "units": "deg", "value": "50.86052572044643", "title": "longitude of the ascending node"}, {"label": "peri", "sigma": 2.78483900866703e-05, "name": "w", "units": "deg", "title": "argument of perihelion", "value": "229.9879518166472"}, {"name": "i", "sigma": 5.65551569204017e-05, "units": "deg", "title": "inclination", "value": "17.40973200239588", "label": "i"}], "data": [["9.984220614231519E-14", "-8.859114269315953E-14", "1.728675922315173E-11", "5.122090736733788E-12", "5.896388776010993E-12", "5.253610216954699E-12"], ["-8.859114269315953E-14", "7.861247341767203E-14", "-1.534701858390818E-11", "-4.583185286869011E-12", "-5.219290464263403E-12", "-4.686215922680974E-12"], ["1.728675922315173E-11", "-1.534701858390818E-11", "3.916293367556923E-9", "1.48879533761007E-9", "1.130234030850514E-9", "6.416387363547927E-10"], ["5.122090736733788E-12", "-4.583185286869011E-12", "1.48879533761007E-9", "1.267765294069652E-9", "-9.398053377741662E-11", "1.123610897759604E-9"], ["5.896388776010993E-12", "-5.219290464263403E-12", "1.130234030850514E-9", "-9.398053377741662E-11", "7.755328304193546E-10", "-5.956235687972411E-10"], ["5.253610216954699E-12", "-4.686215922680974E-12", "6.416387363547927E-10", "1.123610897759604E-9", "-5.956235687972411E-10", "3.198485774291257E-9"]], "labels": ["e", "q", "tp", "node", "peri", "i"], "epoch": "2454398.5"}, "elements": [{"label": "e", "value": ".2621266295626744", "title": "eccentricity", "units": null, "name": "e", "sigma": "3.0974E-7"}, {"name": "a", "sigma": "1.7716E-8", "units": "au", "title": "semi-major axis", "value": ".8784110945930174", "label": "a"}, {"value": ".6481561549968903", "title": "perihelion distance", "units": "au", "sigma": "2.793E-7", "name": "q", "label": "q"}, {"label": "i", "name": "i", "sigma": "5.6562E-5", "units": "deg", "value": "17.41515136692786", "title": "inclination; angle with respect to x-y ecliptic plane"}, {"units": "deg", "title": "longitude of the ascending node", "value": "50.76249231144589", "sigma": "3.5738E-5", "name": "om", "label": "node"}, {"label": "peri", "units": "deg", "value": "230.2072894688157", "title": "argument of perihelion", "sigma": "2.9779E-5", "name": "w"}, {"title": "mean anomaly", "value": "106.3419061363864", "units": "deg", "sigma": "3.2314E-5", "name": "ma", "label": "M"}, {"label": "tp", "units": "TDB", "title": "time of perihelion passage", "value": "2461111.672572401787", "name": "tp", "sigma": "2.9243E-5"}, {"units": "d", "title": "sidereal orbital period", "value": "300.7081130776802", "sigma": "9.0969E-6", "name": "per", "label": "period"}, {"units": "deg/d", "title": "mean motion", "value": "1.197174217600851", "name": "n", "sigma": "3.6216E-8", "label": "n"}, {"sigma": "2.2359E-8", "name": "ad", "value": "1.108666034189145", "title": "aphelion distance", "units": "au", "label": "Q"}], "epoch": "2461200.5"}